HST                     
1 20580U 90037B   26169.12115247  .00005032  00000+0  15694-3 0  9998
2 20580  28.4721  74.1921 0001766 152.2420 207.8270 15.30755230788719
POLAR                   
1 23802U 96013A   26168.80723714  .00000114  00000+0  00000+0 0  9993
2 23802  79.8548 227.0450 6471047 209.0570  89.8865  1.29846132144863
SWAS                    
1 25560U 98071A   26169.40716126  .00002234  00000+0  14501-3 0  9998
2 25560  69.8945 224.3732 0008659 258.7896 101.2295 15.09631456497456
CXO                     
1 25867U 99040B   26172.02247085  .00000453  00000+0  00000+0 0  9996
2 25867  56.2474 116.4966 7828329 310.2765   0.2930  0.37807394 17333
XMM-NEWTON              
1 25989U 99066A   26169.34668136 -.00000002  00000+0  00000+0 0  9995
2 25989  64.4794 282.9700 4673195  64.9038   0.0897  0.50127427 23010
TERRA                   
1 25994U 99068A   26169.60999120  .00000312  00000+0  72493-4 0  9995
2 25994  97.9456 219.0999 0001694 184.5927 327.8653 14.61104174409811
CLUSTER II-FM7 (SAMBA)  
1 26410U 00041A   26170.36958808  .00004714  00000+0  00000+0 0  9995
2 26410 149.9200  51.3283 9058302 268.5109 359.4853  0.44833363 20328
CLUSTER II-FM8 (TANGO)  
1 26464U 00045B   26166.18760269  .00011725  00000+0  00000+0 0  9995
2 26464 150.1504  51.7507 9057004 268.7261   2.8044  0.44418308 20307
ODIN                    
1 26702U 01007A   26169.36436007  .00155490  00000+0  98090-3 0  9990
2 26702  97.3822 210.3829 0006689 142.8888 217.2841 15.76165394389588
TIMED                   
1 26998U 01055B   26169.61389057  .00000795  00000+0  75717-4 0  9999
2 26998  74.0673 232.1459 0001199 333.0853  27.0269 14.95297033331033
CORIOLIS                
1 27640U 03001A   26169.60648225  .00000070  00000+0  53491-4 0  9992
2 27640  98.7124 176.4696 0013479 204.4385 155.6153 14.19945150214429
SORCE                   
1 27651U 03004A   26169.53424540  .00002036  00000+0  15645-3 0  9993
2 27651  39.9902 253.9929 0016309  59.4414 300.7988 15.03718811272102
MOST                    
1 27843U 03031D   26169.47842683  .00000037  00000+0  36945-4 0  9997
2 27843  98.7044 177.1864 0008761 246.2761 113.7498 14.21322686190897
SCISAT 1                
1 27858U 03036A   26169.30611021  .00000390  00000+0  54451-4 0  9994
2 27858  73.9283 169.1196 0008515 238.9735 121.0606 14.81448472231615
SWIFT                   
1 28485U 04047A   26169.33187220  .00042658  00000+0  35233-3 0  9995
2 28485  20.5514 176.0679 0001494 306.1667  53.8640 15.68419656187046
HINODE (SOLAR-B)        
1 29479U 06041A   26169.47987599  .00000523  00000+0  98344-4 0  9995
2 29479  98.0546 185.6133 0015978 285.2611  74.6828 14.68624622 55069
SHIJIAN-6 02A (SJ-6 02A)
1 29505U 06046A   26169.60875204  .00005327  00000+0  27336-3 0  9993
2 29505  97.6351 210.6863 0004485 121.2752 238.8921 15.16956223 72485
SHIJIAN-6 02B (SJ-6 02B)
1 29506U 06046B   26169.61262701  .00001208  00000+0  98234-4 0  9997
2 29506  97.7152 198.6628 0015404  56.3827 303.8865 15.01380923 70956
FGRST (GLAST)           
1 33053U 08029A   26169.47267449  .00002166  00000+0  73521-4 0  9996
2 33053  25.5804 195.5562 0007896 344.7897  15.2403 15.23950537996037
SDO                     
1 36395U 10005A   26168.41002763 -.00000096  00000+0  00000+0 0  9992
2 36395  34.6527  86.3378 0001734  44.0102 180.8312  1.00269958 60061
CRYOSAT 2               
1 36508U 10013A   26169.59775216  .00000193  00000+0  47195-4 0  9995
2 36508  92.0357 277.6443 0002141  90.2763 269.8689 14.51899640858284
X-SAT                   
1 37389U 11015C   26169.55942675  .00000155  00000+0  83528-4 0  9995
2 37389  98.3511 146.5177 0013859 344.5497  15.5258 14.25206694787874
GCOM-W1 (SHIZUKU)       
1 38337U 12025A   26169.28724637  .00000362  00000+0  90261-4 0  9999
2 38337  98.2021 109.8262 0001776  74.4678  83.2661 14.57125513749193
NUSTAR                  
1 38358U 12031A   26169.66671296  .00005923  00000+0  31244-3 0  9996
2 38358   6.0273  23.0421 0007004 134.3218  92.4518 15.08812549  1308
NEOSSAT                 
1 39089U 13009D   26169.46387226  .00000107  00000+0  51766-4 0  9990
2 39089  98.4177 349.4661 0009937 239.4885 120.5321 14.35826826696928
BRITE-AUSTRIA           
1 39091U 13009F   26169.32256041  .00000128  00000+0  58246-4 0  9991
2 39091  98.3995 348.7301 0009190 232.6910 127.3439 14.36542508697217
IRIS                    
1 39197U 13033A   26169.51170041  .00000763  00000+0  93582-4 0  9998
2 39197  97.9328   8.7846 0023453 317.3281  42.6112 14.85887377700577
HISAKI (SPRINT-A)       
1 39253U 13049A   26169.45455015  .00000106  00000+0  58667-4 0  9994
2 39253  29.7180 213.5695 0136853  27.1270 333.6375 13.55544850631591
CASSIOPE                
1 39265U 13055A   26169.53969705  .00043358 -51576-6  47229-3 0  9998
2 39265  80.9137  65.0794 0292361  57.9071 305.0185 15.25303484667879
STSAT-3                 
1 39422U 13066G   26169.64425674  .00001393  00000+0  10857-3 0  9997
2 39422  97.6228 139.5092 0011122  41.2999 318.9065 15.02761341684422
